OBJECT_NAME,OBJECT_ID,EPOCH,MEAN_MOTION,ECCENTRICITY,INCLINATION,RA_OF_ASC_NODE,ARG_OF_PERICENTER,MEAN_ANOMALY,EPHEMERIS_TYPE,CLASSIFICATION_TYPE,NORAD_CAT_ID,ELEMENT_SET_NO,REV_AT_EPOCH,BSTAR,MEAN_MOTION_DOT,MEAN_MOTION_DDOT
STARLINK-34941,2025-176N,2026-06-14T23:57:36.676224,15.34406057,.00012607,53.1610,59.6983,96.9191,263.1955,0,U,65210,999,4803,.62422126E-3,.20777E-3,0
STARLINK-34847,2025-176P,2026-06-14T23:10:36.899904,15.30224169,.000157,53.1607,60.9060,79.4979,280.6198,0,U,65211,999,4801,.73971E-3,.21629E-3,0
STARLINK-34897,2025-176Q,2026-06-14T23:27:18.860832,15.34411309,.00013703,53.1598,59.5648,76.4154,283.7001,0,U,65212,999,4803,.74432522E-3,.24864E-3,0
STARLINK-34907,2025-176R,2026-06-15T09:26:26.469888,15.34408171,.0001252,53.1596,57.8922,95.4207,264.6938,0,U,65213,999,4809,.60279E-3,.2005E-3,0
STARLINK-34511,2025-176S,2026-06-14T23:54:34.750656,15.34408760,.00008285,53.1600,59.6846,77.3062,282.8033,0,U,65214,999,4797,.85949903E-3,.28783E-3,0
STARLINK-33913,2025-176T,2026-06-14T23:40:14.422656,15.34404208,.00010263,53.1602,61.7442,102.5510,257.5607,0,U,65215,999,4800,.65987548E-3,.21987E-3,0
STARLINK-34302,2025-176U,2026-06-14T23:33:22.439808,15.34403332,.0001125,53.1595,59.5897,104.9367,255.1760,0,U,65216,999,4803,.65804491E-3,.21924E-3,0
STARLINK-34871,2025-176V,2026-06-15T00:33:50.407776,15.34405183,.00015351,53.1609,59.1401,106.4244,253.6927,0,U,65217,999,4804,.77258282E-3,.25821E-3,0
STARLINK-34833,2025-176W,2026-06-14T23:51:32.951232,15.34406456,.00013201,53.1593,59.6653,102.3838,257.7313,0,U,65218,999,4803,.69588172E-3,.23213E-3,0
STARLINK-34960,2025-176X,2026-06-15T09:41:35.550816,15.34367895,.0000905,53.1602,57.9555,85.8890,274.2216,0,U,65219,999,4809,.48383E-3,.15989E-3,0
STARLINK-34603,2025-176Y,2026-06-15T10:02:40.127136,15.34420088,.0001288,53.1617,57.3410,92.1238,267.9912,0,U,65220,999,4810,.65247E-3,.21747E-3,0
STARLINK-34974,2025-176Z,2026-06-15T10:17:48.954048,15.34403000,.0001082,53.1600,57.4018,81.0193,279.0932,0,U,65221,999,4810,.65676E-3,.2188E-3,0
STARLINK-34999,2025-176AA,2026-06-15T06:30:58.457088,15.34367763,.0001484,53.1596,58.5538,71.5001,288.6163,0,U,65222,999,4807,.26864E-3,.8701E-4,0
STARLINK-34996,2025-176AB,2026-06-15T09:35:32.002080,15.34400154,.0001464,53.1593,57.9259,69.9943,290.1217,0,U,65223,999,4809,.63873E-3,.21265E-3,0
STARLINK-34975,2025-176AC,2026-06-14T23:42:27.087264,15.34357170,.00011095,53.1600,59.6262,115.6294,244.4823,0,U,65224,999,4803,.83595715E-3,.27935E-3,0
STARLINK-34257,2025-176AD,2026-06-14T23:48:31.185504,15.34410888,.00012219,53.1594,59.6484,92.8367,267.2775,0,U,65225,999,4797,.10491118E-2,.35249E-3,0
STARLINK-34842,2025-179A,2026-06-15T09:21:15.848064,15.05648368,.0002296,97.3557,208.4089,93.1402,267.0088,0,U,65235,999,4658,.20772E-3,.2941E-4,0
STARLINK-34938,2025-179B,2026-06-15T08:37:23.589984,15.05653219,.0001696,97.3560,208.2976,93.9556,266.1866,0,U,65236,999,4656,.24502E-3,.348E-4,0
STARLINK-34958,2025-179C,2026-06-15T09:01:19.203744,15.05657359,.00021,97.3600,208.2743,101.7358,258.4105,0,U,65237,999,4666,.17623E-3,.2487E-4,0
STARLINK-34818,2025-179D,2026-06-15T12:56:35.123424,15.05661651,.0001507,97.3573,208.5165,87.6178,272.5222,0,U,65238,999,4627,.26679E-3,.3795E-4,0
STARLINK-34964,2025-179E,2026-06-15T09:13:18.267744,15.05651553,.0002128,97.3564,208.2630,112.8269,247.3184,0,U,65239,999,4651,.33311E-3,.4752E-4,0
STARLINK-34953,2025-179F,2026-06-15T08:45:23.715648,15.05660557,.0002179,97.3564,208.2896,128.3922,231.7502,0,U,65240,999,4667,.29252E-3,.4167E-4,0
STARLINK-34969,2025-179G,2026-06-15T08:25:26.126976,15.05651916,.0001573,97.3570,208.3100,78.6973,281.4431,0,U,65241,999,4651,.192E-3,.2714E-4,0
STARLINK-34963,2025-179H,2026-06-15T12:00:02.000160,15.05607473,.0001541,97.3533,208.4964,115.6051,76.7187,0,U,65242,999,583,.58103E-2,.84683E-3,0
STARLINK-34982,2025-179J,2026-06-15T08:53:19.608576,15.05648021,.0003274,97.3562,208.2838,118.5498,241.6059,0,U,65243,999,4667,-.32264E-3,-.471E-4,0
STARLINK-34990,2025-179K,2026-06-15T01:54:39.523104,15.05659747,.0001369,97.3571,208.0659,133.0941,227.0401,0,U,65244,999,4653,.27342455E-3,.3891E-4,0
STARLINK-34977,2025-179L,2026-06-15T08:41:23.189280,15.05655905,.000249,97.3574,208.2939,87.6206,272.5306,0,U,65245,999,4648,.12272E-3,.1714E-4,0
STARLINK-34959,2025-179M,2026-06-15T09:17:13.814016,15.05688271,.0000737,97.3583,208.2694,116.1892,243.9412,0,U,65246,999,4652,.74161E-3,.1067E-3,0
STARLINK-34923,2025-179N,2026-06-15T09:09:16.765056,15.05661531,.0002849,97.3634,208.2678,102.1058,258.0489,0,U,65247,999,4656,.88691E-4,.1223E-4,0
STARLINK-34962,2025-179P,2026-06-15T08:29:27.430944,15.05632646,.0000799,97.3582,208.3069,123.3850,236.7454,0,U,65248,999,4652,.21307E-3,.3017E-4,0
STARLINK-34925,2025-179Q,2026-06-15T03:14:24.956448,15.05651847,.00013096,97.3592,208.1472,68.2373,291.8993,0,U,65249,999,4648,.6144526E-4,.829E-5,0
STARLINK-34973,2025-179R,2026-06-15T09:25:15.377376,15.05657062,.000213,97.3568,208.4091,89.1546,270.9926,0,U,65250,999,4651,.1336E-3,.1871E-4,0
STARLINK-34989,2025-179S,2026-06-15T09:29:14.286336,15.05660091,.0000784,97.3564,208.4039,102.7273,257.4042,0,U,65251,999,4669,.90167E-4,.1244E-4,0
STARLINK-34961,2025-179T,2026-06-15T01:58:38.898624,15.05659065,.00016247,97.3602,208.0609,106.0093,254.1314,0,U,65252,999,4648,.21188033E-3,.3002E-4,0
STARLINK-34933,2025-179U,2026-06-15T08:57:19.882656,15.05657561,.0002223,97.3596,208.2786,94.8929,265.2552,0,U,65253,999,4651,.16599E-3,.2339E-4,0
STARLINK-34979,2025-179V,2026-06-15T09:05:18.176640,15.05656965,.0001357,97.3587,208.2711,121.3421,238.7940,0,U,65254,999,4651,.15914E-3,.224E-4,0
STARLINK-34987,2025-179W,2026-06-15T08:49:21.416736,15.05657543,.000205,97.3560,208.2857,92.6223,267.5239,0,U,65255,999,4650,.1739E-3,.2453E-4,0
STARLINK-34971,2025-179X,2026-06-15T01:50:40.390368,15.05662639,.00013936,97.3566,208.0690,119.8795,240.2571,0,U,65256,999,4620,.26535228E-3,.3775E-4,0
STARLINK-34966,2025-179Y,2026-06-15T12:52:35.835168,15.05679932,.0000851,97.3572,208.5187,160.6834,199.4426,0,U,65257,999,4665,.92064E-3,.13261E-3,0
STARLINK-34980,2025-179Z,2026-06-15T02:10:37.898688,15.05646738,.00018406,97.3567,208.0486,121.7371,238.4036,0,U,65258,999,4647,.38769086E-3,.554E-4,0
STARLINK-34922,2025-184A,2026-06-15T02:57:16.722144,15.05658745,.00012514,97.3560,217.8138,117.2913,242.8442,0,U,65273,999,4596,.2241267E-3,.3179E-4,0
STARLINK-34904,2025-184B,2026-06-15T09:59:56.957280,15.05656496,.0001651,97.3565,218.0310,88.8339,271.3078,0,U,65274,999,4600,.18458E-3,.2607E-4,0
STARLINK-34954,2025-184C,2026-06-15T02:29:23.171424,15.05658577,.00018274,97.3580,217.6865,115.1957,244.9460,0,U,65275,999,4595,.40659848E-3,.5815E-4,0
STARLINK-34968,2025-184D,2026-06-15T09:40:01.043904,15.05656407,.0002464,97.3558,218.0513,90.0982,270.0527,0,U,65276,999,4600,.12452E-3,.174E-4,0
STARLINK-34935,2025-184E,2026-06-15T09:08:06.467424,15.05651980,.0002349,97.3603,218.0797,96.8335,263.3160,0,U,65277,999,4600,-.49851E-4,-.777E-5,0
STARLINK-35000,2025-184F,2026-06-15T10:11:52.583424,15.05679796,.00015,97.3640,218.0224,173.3401,186.7847,0,U,65278,999,4600,.33032E-3,.4716E-4,0
STARLINK-35023,2025-184G,2026-06-15T09:51:58.055040,15.05653139,.0001898,97.3555,218.0397,90.7557,269.3888,0,U,65279,999,4600,.99394E-4,.1377E-4,0
STARLINK-35001,2025-184H,2026-06-15T09:28:03.379584,15.05658117,.000249,97.3562,218.0625,97.3175,262.8336,0,U,65280,999,4600,.18297E-3,.2584E-4,0
STARLINK-35010,2025-184J,2026-06-15T02:53:17.522016,15.05657526,.00013717,97.3585,217.8178,104.6089,255.5290,0,U,65281,999,4596,.17346496E-3,.2447E-4,0
STARLINK-35021,2025-184K,2026-06-15T02:37:20.650656,15.05658801,.00019592,97.3592,217.8347,131.5954,228.5441,0,U,65282,999,4591,.16947793E-3,.2389E-4,0
STARLINK-35015,2025-184L,2026-06-15T03:57:06.273216,15.05655858,.00009411,97.3560,217.7576,101.8925,258.2408,0,U,65283,999,4596,.40699837E-3,.5821E-4,0
STARLINK-35006,2025-184M,2026-06-15T09:36:01.651104,15.05658487,.0001351,97.3578,218.0573,97.3861,262.7520,0,U,65284,999,4600,.24605E-3,.3495E-4,0
STARLINK-34995,2025-184N,2026-06-15T09:55:57.688032,15.05657240,.0001804,97.3574,218.0368,101.3387,258.8043,0,U,65285,999,4600,.18455E-3,.2607E-4,0
STARLINK-35048,2025-184P,2026-06-15T12:00:02.000160,15.05607123,.0002161,97.3531,218.1372,106.3005,45.5612,0,U,65286,999,558,.55509E-2,.80856E-3,0
STARLINK-35007,2025-184Q,2026-06-15T10:07:55.366176,15.05655667,.0001535,97.3557,218.0229,109.2233,250.9161,0,U,65287,999,4594,.17605E-3,.2484E-4,0
STARLINK-35018,2025-184R,2026-06-15T09:24:04.129344,15.05656659,.0002173,97.3563,218.0664,102.7333,257.4138,0,U,65288,999,4600,.14525E-3,.2039E-4,0
STARLINK-34845,2025-184S,2026-06-15T09:12:08.390016,15.05649536,.0002042,97.3591,218.0758,91.1837,268.9625,0,U,65289,999,4600,.32006E-3,.4563E-4,0
STARLINK-34984,2025-184T,2026-06-15T09:32:02.548608,15.05658105,.0002152,97.3566,218.0582,99.5589,260.5882,0,U,65290,999,4600,.21646E-3,.3068E-4,0
STARLINK-35002,2025-184U,2026-06-15T02:25:21.840672,15.05662465,.00008106,97.3582,217.6904,100.4935,259.6384,0,U,65291,999,4595,.25137429E-3,.3573E-4,0
STARLINK-35017,2025-184V,2026-06-15T09:04:07.987008,15.05656745,.0001429,97.3584,218.0834,96.8751,263.2639,0,U,65292,999,4595,.1757E-3,.2479E-4,0
STARLINK-34951,2025-184W,2026-06-15T09:47:59.495136,15.05653969,.0002082,97.3565,218.0447,109.4039,250.7413,0,U,65293,999,4600,.18432E-3,.2603E-4,0
STARLINK-34613,2025-184X,2026-06-15T03:41:07.886400,15.05651822,.00020444,97.3544,217.7733,125.9566,234.1851,0,U,65294,999,4596,.23487677E-3,.3333E-4,0
STARLINK-34834,2025-184Y,2026-06-15T02:33:21.536928,15.05655863,.00021719,97.3592,217.6857,128.2624,231.8799,0,U,65295,999,4595,.55319386E-3,.7935E-4,0
STARLINK-34872,2025-184Z,2026-06-15T10:15:53.417376,15.05655630,.0000972,97.3574,218.0160,172.3041,187.8201,0,U,65296,999,4600,.56449E-4,.757E-5,0
STARLINK-34899,2025-189A,2026-06-15T03:07:52.373856,15.31711980,.00010367,53.1589,113.5430,83.8394,276.2725,0,U,65323,999,4603,.7182042E-3,.21996E-3,0
